[{"OBJECT_NAME":"STARLINK-1954","OBJECT_ID":"2021-009H","EPOCH":"2026-03-09T23:20:25.352160","MEAN_MOTION":15.30849174,"ECCENTRICITY":0.00046184,"INCLINATION":53.0574,"RA_OF_ASC_NODE":8.8654,"ARG_OF_PERICENTER":103.3293,"MEAN_ANOMALY":256.8222,"EPHEMERIS_TYPE":0,"CLASSIFICATION_TYPE":"U","NORAD_CAT_ID":47555,"ELEMENT_SET_NO":999,"REV_AT_EPOCH":28100,"BSTAR":0.0022371791,"MEAN_MOTION_DOT":0.00067883,"MEAN_MOTION_DDOT":0},{"OBJECT_NAME":"STARLINK-34896","OBJECT_ID":"2025-247Z","EPOCH":"2026-03-09T14:42:05.915808","MEAN_MOTION":15.30171297,"ECCENTRICITY":0.0001243,"INCLINATION":53.1588,"RA_OF_ASC_NODE":191.6684,"ARG_OF_PERICENTER":79.191,"MEAN_ANOMALY":280.9231,"EPHEMERIS_TYPE":0,"CLASSIFICATION_TYPE":"U","NORAD_CAT_ID":66288,"ELEMENT_SET_NO":999,"REV_AT_EPOCH":2102,"BSTAR":0.00094151,"MEAN_MOTION_DOT":0.00027604,"MEAN_MOTION_DDOT":0}]
